{"type": "FeatureCollection", "features": [ {"type": "Feature", "properties": {"norad_id": 60453, "name": "LEGION 4", "group": "resource", "lat": 15.012742110992384, "lon": 70.38080064548633, "alt_km": 515.5851657265202, "timestamp": "2025-12-10T07:43:54.431952+00:00", "meta": {"OBJECT_NAME": "LEGION 4", "OBJECT_ID": "2024-146B", "EPOCH": "2025-12-09T15:49:13.717056", "MEAN_MOTION": 15.15774012, "ECCENTRICITY": 0.0009746, "INCLINATION": 45.0385, "RA_OF_ASC_NODE": 58.3883, "ARG_OF_PERICENTER": 295.1374, "MEAN_ANOMALY": 64.8494, "EPHEMERIS_TYPE": 0, "CLASSIFICATION_TYPE": "U", "NORAD_CAT_ID": 60453, "ELEMENT_SET_NO": 999, "REV_AT_EPOCH": 7211, "BSTAR": 0.00042107, "MEAN_MOTION_DOT": 7.925e-05, "MEAN_MOTION_DDOT": 0}, "tle": {"line1": "1 60453U 24146B   25343.65918654  .00007925  00000+0  42107-3 0  9995", "line2": "2 60453  45.0385  58.3883 0009746 295.1374  64.8494 15.15774012 72116"}}, "geometry": {"type": "Point", "coordinates": [70.38080064548633, 15.012742110992384]}}, {"type": "Feature", "properties": {"norad_id": 60989, "name": "SENTINEL-2C", "group": "resource", "lat": 21.789982760496848, "lon": -119.70513764659373, "alt_km": 788.3423141351332, "timestamp": "2025-12-10T07:43:54.431964+00:00", "meta": {"OBJECT_NAME": "SENTINEL-2C", "OBJECT_ID": "2024-157A", "EPOCH": "2025-12-09T10:51:24.113952", "MEAN_MOTION": 14.30815888, "ECCENTRICITY": 0.00011938, "INCLINATION": 98.5685, "RA_OF_ASC_NODE": 55.9822, "ARG_OF_PERICENTER": 97.8773, "MEAN_ANOMALY": 262.2545, "EPHEMERIS_TYPE": 0, "CLASSIFICATION_TYPE": "U", "NORAD_CAT_ID": 60989, "ELEMENT_SET_NO": 999, "REV_AT_EPOCH": 6585, "BSTAR": 0.00014030741, "MEAN_MOTION_DOT": 3.24e-06, "MEAN_MOTION_DDOT": 0}, "tle": {"line1": "1 60989U 24157A   25343.45236243  .00000324  00000+0  14031-3 0  9997", "line2": "2 60989  98.5685  55.9822 0001193  97.8773 262.2545 14.30815888 65857"}}, "geometry": {"type": "Point", "coordinates": [-119.70513764659373, 21.789982760496848]}}, {"type": "Feature", "properties": {"norad_id": 61735, "name": "IONOSFERA-M 1", "group": "resource", "lat": 44.63943178323062, "lon": 42.927604567662954, "alt_km": 812.6141806023279, "timestamp": "2025-12-10T07:43:54.431975+00:00", "meta": {"OBJECT_NAME": "IONOSFERA-M 1", "OBJECT_ID": "2024-199A", "EPOCH": "2025-12-09T20:58:26.603328", "MEAN_MOTION": 14.22713172, "ECCENTRICITY": 0.0001096, "INCLINATION": 98.7412, "RA_OF_ASC_NODE": 213.7441, "ARG_OF_PERICENTER": 25.8037, "MEAN_ANOMALY": 334.3195, "EPHEMERIS_TYPE": 0, "CLASSIFICATION_TYPE": "U", "NORAD_CAT_ID": 61735, "ELEMENT_SET_NO": 999, "REV_AT_EPOCH": 10078, "BSTAR": 8.533e-05, "MEAN_MOTION_DOT": 1.47e-06, "MEAN_MOTION_DDOT": 0}, "tle": {"line1": "1 61735U 24199A   25343.87391902  .00000147  00000+0  85330-4 0  9997", "line2": "2 61735  98.7412 213.7441 0001096  25.8037 334.3195 14.22713172100782"}}, "geometry": {"type": "Point", "coordinates": [42.927604567662954, 44.63943178323062]}}, {"type": "Feature", "properties": {"norad_id": 61736, "name": "IONOSFERA-M 2", "group": "resource", "lat": -42.23770936468516, "lon": -137.86956894079967, "alt_km": 823.789082248004, "timestamp": "2025-12-10T07:43:54.431984+00:00", "meta": {"OBJECT_NAME": "IONOSFERA-M 2", "OBJECT_ID": "2024-199B", "EPOCH": "2025-12-09T21:48:20.371968", "MEAN_MOTION": 14.22715383, "ECCENTRICITY": 0.0001582, "INCLINATION": 98.7403, "RA_OF_ASC_NODE": 213.691, "ARG_OF_PERICENTER": 114.2499, "MEAN_ANOMALY": 245.8844, "EPHEMERIS_TYPE": 0, "CLASSIFICATION_TYPE": "U", "NORAD_CAT_ID": 61736, "ELEMENT_SET_NO": 999, "REV_AT_EPOCH": 10391, "BSTAR": 8.5671e-05, "MEAN_MOTION_DOT": 1.48e-06, "MEAN_MOTION_DDOT": 0}, "tle": {"line1": "1 61736U 24199B   25343.90856912  .00000148  00000+0  85671-4 0  9998", "line2": "2 61736  98.7403 213.6910 0001582 114.2499 245.8844 14.22715383103919"}}, "geometry": {"type": "Point", "coordinates": [-137.86956894079967, -42.23770936468516]}}, {"type": "Feature", "properties": {"norad_id": 63772, "name": "BIOMASS", "group": "resource", "lat": 58.885414470905, "lon": 2.962707413192266, "alt_km": 662.6408200519527, "timestamp": "2025-12-10T07:43:54.431994+00:00", "meta": {"OBJECT_NAME": "BIOMASS", "OBJECT_ID": "2025-090A", "EPOCH": "2025-12-09T18:05:44.042208", "MEAN_MOTION": 14.67536805, "ECCENTRICITY": 0.0001201, "INCLINATION": 98.0703, "RA_OF_ASC_NODE": 168.8071, "ARG_OF_PERICENTER": 77.0089, "MEAN_ANOMALY": 283.1249, "EPHEMERIS_TYPE": 0, "CLASSIFICATION_TYPE": "U", "NORAD_CAT_ID": 63772, "ELEMENT_SET_NO": 999, "REV_AT_EPOCH": 3290, "BSTAR": 0.0004616, "MEAN_MOTION_DOT": 2.57e-05, "MEAN_MOTION_DDOT": 0}, "tle": {"line1": "1 63772U 25090A   25343.75398197  .00002570  00000+0  46160-3 0  9990", "line2": "2 63772  98.0703 168.8071 0001201  77.0089 283.1249 14.67536805 32908"}}, "geometry": {"type": "Point", "coordinates": [2.962707413192266, 58.885414470905]}}, {"type": "Feature", "properties": {"norad_id": 64694, "name": "GOSAT-GW (IBUKI GW)", "group": "resource", "lat": -30.362693148976017, "lon": -75.3700801221761, "alt_km": 675.1432601992774, "timestamp": "2025-12-10T07:43:54.432004+00:00", "meta": {"OBJECT_NAME": "GOSAT-GW (IBUKI GW)", "OBJECT_ID": "2025-141A", "EPOCH": "2025-12-08T18:14:08.043648", "MEAN_MOTION": 14.67565462, "ECCENTRICITY": 0.00014946, "INCLINATION": 98.0423, "RA_OF_ASC_NODE": 278.345, "ARG_OF_PERICENTER": 82.5316, "MEAN_ANOMALY": 277.6059, "EPHEMERIS_TYPE": 0, "CLASSIFICATION_TYPE": "U", "NORAD_CAT_ID": 64694, "ELEMENT_SET_NO": 999, "REV_AT_EPOCH": 2391, "BSTAR": 0.00038232231, "MEAN_MOTION_DOT": 2.122e-05, "MEAN_MOTION_DDOT": 0}, "tle": {"line1": "1 64694U 25141A   25342.75981532  .00002122  00000+0  38232-3 0  9995", "line2": "2 64694  98.0423 278.3450 0001494  82.5316 277.6059 14.67565462 23916"}}, "geometry": {"type": "Point", "coordinates": [-75.3700801221761, -30.362693148976017]}}, {"type": "Feature", "properties": {"norad_id": 64876, "name": "IONOSFERA-M 3", "group": "resource", "lat": 12.344893997463567, "lon": -55.636313870197235, "alt_km": 820.6207050615722, "timestamp": "2025-12-10T07:43:54.432014+00:00", "meta": {"OBJECT_NAME": "IONOSFERA-M 3", "OBJECT_ID": "2025-155A", "EPOCH": "2025-12-09T21:32:12.901920", "MEAN_MOTION": 14.2144, "ECCENTRICITY": 0.0002293, "INCLINATION": 98.5778, "RA_OF_ASC_NODE": 305.844, "ARG_OF_PERICENTER": 64.4717, "MEAN_ANOMALY": 295.6698, "EPHEMERIS_TYPE": 0, "CLASSIFICATION_TYPE": "U", "NORAD_CAT_ID": 64876, "ELEMENT_SET_NO": 999, "REV_AT_EPOCH": 1951, "BSTAR": 9.6782e-05, "MEAN_MOTION_DOT": 1.69e-06, "MEAN_MOTION_DDOT": 0}, "tle": {"line1": "1 64876U 25155A   25343.89737155  .00000169  00000+0  96782-4 0  9992", "line2": "2 64876  98.5778 305.8440 0002293  64.4717 295.6698 14.21440000 19513"}}, "geometry": {"type": "Point", "coordinates": [-55.636313870197235, 12.344893997463567]}}, {"type": "Feature", "properties": {"norad_id": 64877, "name": "IONOSFERA-M 4", "group": "resource", "lat": -13.245504502989824, "lon": 124.14019023108969, "alt_km": 825.6993613805889, "timestamp": "2025-12-10T07:43:54.432024+00:00", "meta": {"OBJECT_NAME": "IONOSFERA-M 4", "OBJECT_ID": "2025-155B", "EPOCH": "2025-12-09T20:41:21.012864", "MEAN_MOTION": 14.21441093, "ECCENTRICITY": 0.0001662, "INCLINATION": 98.5777, "RA_OF_ASC_NODE": 305.7292, "ARG_OF_PERICENTER": 66.2764, "MEAN_ANOMALY": 293.8588, "EPHEMERIS_TYPE": 0, "CLASSIFICATION_TYPE": "U", "NORAD_CAT_ID": 64877, "ELEMENT_SET_NO": 999, "REV_AT_EPOCH": 1950, "BSTAR": 0.00010415, "MEAN_MOTION_DOT": 1.85e-06, "MEAN_MOTION_DDOT": 0}, "tle": {"line1": "1 64877U 25155B   25343.86204876  .00000185  00000+0  10415-3 0  9995", "line2": "2 64877  98.5777 305.7292 0001662  66.2764 293.8588 14.21441093 19508"}}, "geometry": {"type": "Point", "coordinates": [124.14019023108969, -13.245504502989824]}}, {"type": "Feature", "properties": {"norad_id": 64899, "name": "MICROCARB", "group": "resource", "lat": -81.80081663641704, "lon": 162.18342554055445, "alt_km": 667.1172945651651, "timestamp": "2025-12-10T07:43:54.432034+00:00", "meta": {"OBJECT_NAME": "MICROCARB", "OBJECT_ID": "2025-156A", "EPOCH": "2025-12-09T10:56:29.938848", "MEAN_MOTION": 14.72049485, "ECCENTRICITY": 0.00169337, "INCLINATION": 98.0028, "RA_OF_ASC_NODE": 58.854, "ARG_OF_PERICENTER": 154.8146, "MEAN_ANOMALY": 205.389, "EPHEMERIS_TYPE": 0, "CLASSIFICATION_TYPE": "U", "NORAD_CAT_ID": 64899, "ELEMENT_SET_NO": 999, "REV_AT_EPOCH": 2005, "BSTAR": 0.00022635085, "MEAN_MOTION_DOT": 1.375e-05, "MEAN_MOTION_DDOT": 0}, "tle": {"line1": "1 64899U 25156A   25343.45590207  .00001375  00000+0  22635-3 0  9990", "line2": "2 64899  98.0028  58.8540 0016933 154.8146 205.3890 14.72049485 20054"}}, "geometry": {"type": "Point", "coordinates": [162.18342554055445, -81.80081663641704]}}, {"type": "Feature", "properties": {"norad_id": 64900, "name": "CO3D 3", "group": "resource", "lat": -69.9172125141125, "lon": -140.20185458602194, "alt_km": 513.3461534575881, "timestamp": "2025-12-10T07:43:54.432044+00:00", "meta": {"OBJECT_NAME": "CO3D 3", "OBJECT_ID": "2025-156B", "EPOCH": "2025-12-09T19:34:17.738112", "MEAN_MOTION": 15.2018766, "ECCENTRICITY": 0.0001293, "INCLINATION": 97.4343, "RA_OF_ASC_NODE": 60.2241, "ARG_OF_PERICENTER": 99.1307, "MEAN_ANOMALY": 261.0074, "EPHEMERIS_TYPE": 0, "CLASSIFICATION_TYPE": "U", "NORAD_CAT_ID": 64900, "ELEMENT_SET_NO": 999, "REV_AT_EPOCH": 2076, "BSTAR": 0.0004532, "MEAN_MOTION_DOT": 9.752e-05, "MEAN_MOTION_DDOT": 0}, "tle": {"line1": "1 64900U 25156B   25343.81548308  .00009752  00000+0  45320-3 0  9991", "line2": "2 64900  97.4343  60.2241 0001293  99.1307 261.0074 15.20187660 20761"}}, "geometry": {"type": "Point", "coordinates": [-140.20185458602194, -69.9172125141125]}}]}